METAR LPPT 010130Z 34003KT 9999 SCT022 10/07 Q1018
METAR LPPT 010100Z 32004KT 9999 FEW020 10/07 Q1018
METAR LPPT 010030Z 32003KT 290V350 9999 FEW022 10/08 Q1018
METAR LPPT 010000Z 33005KT 9999 FEW022 10/08 Q1018
METAR LPPT 302330Z 33006KT 9999 FEW022 10/08 Q1018
METAR LPPT 302300Z 34006KT 9999 FEW020 10/08 Q1018
METAR LPPT 302230Z 33006KT 9999 FEW020 11/08 Q1018
METAR LPPT 302200Z 33005KT 9999 FEW022 11/08 Q1018
METAR LPPT 302130Z 30006KT 9999 FEW020 11/08 Q1018
METAR LPPT 302100Z 30006KT 9999 FEW020 11/08 Q1018
METAR LPPT 302030Z 30006KT 9999 FEW020 12/07 Q1017
METAR LPPT 302000Z 31008KT 9999 FEW025 FEW030TCU 12/07 Q1017
METAR LPPT 301930Z 31008KT 280V340 9999 FEW025 FEW030TCU 12/07 Q1017
METAR LPPT 301900Z 32008KT 270V340 9999 FEW025 13/07 Q1017
METAR LPPT 301830Z 31007KT 290V350 9999 FEW030 14/08 Q1016
METAR LPPT 301800Z 30009KT 9999 FEW030 14/07 Q1016
METAR LPPT 301730Z 29008KT 260V320 9999 FEW032 15/07 Q1016
METAR LPPT 301700Z 29009KT 250V330 9999 FEW032 15/07 Q1016
METAR LPPT 301630Z 29008KT 260V330 9999 FEW036 15/07 Q1016
METAR LPPT 301600Z 27009KT 240V300 9999 FEW034 15/07 Q1016
METAR LPPT 301530Z 24008KT 210V270 9999 SCT030 14/08 Q1016
METAR LPPT 301500Z 26010KT 220V300 9999 VCSH FEW026 FEW035TCU SCT040 14/08 Q1016
METAR LPPT 301430Z 26011KT 9999 FEW030 FEW035TCU 15/07 Q1016
METAR LPPT 301400Z 27010KT 9999 -SHRA FEW030 FEW035TCU 14/08 Q1017
METAR LPPT 301330Z 29011KT 260V330 9999 SCT038 15/06 Q1017
METAR LPPT 301300Z 27008KT 220V310 9999 SCT038 15/06 Q1017
METAR LPPT 301230Z 24008KT 210V340 9999 SCT038 15/05 Q1017
METAR LPPT 301200Z VRB06KT 9999 SCT038 15/05 Q1017
METAR LPPT 301130Z 28005KT 220V360 9999 FEW038 14/06 Q1017
METAR LPPT 301100Z 27007KT 230V310 9999 FEW035 SCT048 14/06 Q1017
METAR LPPT 301030Z 32006KT 280V050 9999 SCT035 14/05 Q1017
METAR LPPT 301000Z 33007KT 270V010 9999 FEW024 SCT030 15/06 Q1017
METAR LPPT 300930Z 33008KT 280V350 9999 FEW022 14/06 Q1017
METAR LPPT 300900Z 29006KT 240V330 9999 FEW024 13/07 Q1016
METAR LPPT 300830Z 31005KT 270V340 9999 FEW025 12/08 Q1016
METAR LPPT 300800Z 29004KT 250V320 9999 FEW022 12/08 Q1016
METAR LPPT 300730Z 26004KT 9999 FEW025 11/08 Q1016
METAR LPPT 300700Z 27003KT 9999 FEW025 10/07 Q1016
METAR LPPT 300630Z 27003KT 9999 FEW025 FEW030TCU 09/07 Q1016
METAR LPPT 300600Z 28003KT 9999 FEW020 08/07 Q1016
METAR LPPT 300530Z VRB02KT 9999 FEW015 08/06 Q1016
METAR LPPT 300500Z 25003KT 9999 FEW015 08/07 Q1015
METAR LPPT 300430Z 25003KT 220V280 9999 FEW015 08/07 Q1015
METAR LPPT 300400Z 26003KT 9999 FEW020 08/07 Q1016
METAR LPPT 300330Z 27004KT 230V310 9999 FEW025 09/07 Q1016
METAR LPPT 300300Z 24006KT 9999 FEW025 09/07 Q1016
METAR LPPT 300230Z 30005KT 240V360 9999 -SHRA FEW016 BKN025 FEW030TCU 09/07 Q1016
METAR LPPT 300200Z 25005KT 9999 FEW022 SCT040 10/07 Q1016
METAR LPPT 300130Z 23005KT 9999 FEW029 10/06 Q1016
METAR LPPT 300100Z 23005KT 9999 FEW047 10/06 Q1017
METAR LPPT 300030Z 25005KT 9999 FEW025 10/06 Q1017
METAR LPPT 300000Z 25006KT 9999 FEW025 10/07 Q1017
METAR LPPT 292330Z 26006KT 9999 FEW025 10/07 Q1017
METAR LPPT 292300Z 27006KT 230V310 9999 FEW025 FEW030TCU 11/07 Q1017
METAR LPPT 292230Z 24006KT 9999 FEW025 FEW030TCU 11/07 Q1017
METAR LPPT 292200Z 24005KT 9999 FEW025 FEW030TCU 10/06 Q1017
METAR LPPT 292130Z 24005KT 9999 FEW020 FEW025TCU 10/06 Q1017
METAR LPPT 292100Z 25006KT 9999 FEW020 11/05 Q1017
METAR LPPT 292030Z 27005KT 230V320 9999 FEW020 11/06 Q1017
METAR LPPT 292000Z 26008KT 230V290 9999 FEW020 11/06 Q1017
METAR LPPT 291930Z 26008KT 220V290 9999 FEW020 12/05 Q1017
METAR LPPT 291900Z 28009KT 240V310 9999 FEW018 SCT030 12/05 Q1017
METAR LPPT 291830Z 28009KT 240V310 9999 FEW018 SCT030 12/05 Q1016
METAR LPPT 291800Z 30009KT 9999 FEW020 SCT036 13/05 Q1016
METAR LPPT 291730Z 29010KT 250V320 9999 FEW020 SCT038 13/05 Q1016
METAR LPPT 291700Z 27013KT 240V320 9999 SCT040 14/03 Q1016
METAR LPPT 291630Z 28012KT 250V310 9999 SCT038 14/04 Q1016
METAR LPPT 291600Z 28012KT 240V320 9999 FEW025 SCT038 14/05 Q1016
METAR LPPT 291530Z 28010KT 250V310 9999 SCT038 14/05 Q1016
METAR LPPT 291500Z 29012G24KT 230V320 9999 SCT038 15/05 Q1016
METAR LPPT 291430Z 30012KT 260V330 9999 SCT036 14/05 Q1016
METAR LPPT 291400Z 29011KT 250V330 9999 FEW016 SCT036 14/05 Q1017
METAR LPPT 291330Z 26013KT 9999 FEW016 SCT036 14/06 Q1016
METAR LPPT 291300Z 30011KT 260V330 9999 BKN036 13/05 Q1016
METAR LPPT 291230Z 28012G25KT 250V310 9999 BKN036 14/05 Q1016
METAR LPPT 291200Z 29011KT 250V330 9999 FEW028 SCT035 13/06 Q1016
METAR LPPT 291130Z 30011G21KT 260V320 9999 FEW028 FEW030TCU SCT035 13/07 Q1016
METAR LPPT 291100Z 27011G22KT 230V310 9999 FEW025 FEW030TCU 12/07 Q1017
METAR LPPT 291030Z 30012G22KT 270V330 9999 -SHRA FEW024 FEW030TCU BKN040 10/06 Q1017
METAR LPPT 291000Z 27013KT 250V310 9999 SCT028 FEW030TCU 12/06 Q1016
METAR LPPT 290930Z 27008KT 220V300 9999 FEW022 FEW030CB BKN040 11/07 Q1016
METAR LPPT 290900Z 28011G21KT 230V320 9999 -SHRA FEW019 FEW030CB BKN034 12/07 Q1016
METAR LPPT 290830Z 26007KT 220V290 9999 FEW021 FEW030CB BKN034 12/08 Q1015
METAR LPPT 290800Z 27007KT 230V320 9999 VCSH FEW024 FEW030CB BKN035 11/08 Q1015
METAR LPPT 290730Z 24008KT 210V280 9999 -SHRA SCT028 FEW030CB 11/08 Q1015
METAR LPPT 290700Z 29010KT 260V340 9999 -SHRA FEW023 SCT028 FEW030CB 10/06 Q1014
METAR LPPT 290630Z 28007KT 240V320 9999 -SHRA FEW026 FEW030CB 10/06 Q1014
METAR COR LPPT 290600Z 25009KT 220V280 9999 FEW026 FEW030CB 10/07 Q1014
METAR LPPT 290530Z 27007KT 230V310 9999 -SHRA SCT026 FEW030CB BKN044 10/07 Q1013
METAR LPPT 290500Z 25006KT 220V290 9999 -SHRA FEW022 FEW030TCU SCT044 10/07 Q1013
METAR LPPT 290430Z 26005KT 220V320 9999 -SHRA BKN022 FEW030CB 10/07 Q1013
METAR LPPT 290400Z 26007KT 230V310 9999 SCT026 10/07 Q1013
METAR LPPT 290330Z 27005KT 240V310 9999 SCT026 10/07 Q1012
METAR LPPT 290300Z 29005KT 250V330 9999 -SHRA SCT025 FEW030TCU 10/07 Q1012
METAR LPPT 290230Z 27006KT 250V310 9999 -SHRA SCT024 FEW030CB 10/07 Q1012
METAR LPPT 290200Z 26005KT 9999 FEW020 SCT026 10/07 Q1012
METAR LPPT 290130Z 27006KT 240V310 9999 -SHRA SCT020 10/07 Q1012
METAR LPPT 290100Z 29006KT 9999 FEW022 10/07 Q1012
METAR LPPT 290030Z 29006KT 260V320 9999 -SHRA BKN022 FEW030CB 10/07 Q1012
METAR LPPT 290000Z 27005KT 240V300 9999 SCT026 FEW030TCU 10/07 Q1012
METAR COR LPPT 282330Z 28005KT 240V300 9999 FEW020 FEW030TCU 10/07 Q1012
METAR LPPT 282300Z 28005KT 250V320 9999 FEW042 10/07 Q1012
METAR LPPT 282230Z 26005KT 220V300 9999 FEW020 10/07 Q1012
METAR COR LPPT 282200Z 24006KT 9999 FEW020 09/07 Q1012
METAR LPPT 282130Z 23006KT 9999 FEW015 09/07 Q1012
METAR LPPT 282100Z 24006KT 9999 FEW015 09/07 Q1011
METAR LPPT 282030Z 26006KT 9999 FEW018 09/07 Q1011
METAR LPPT 282000Z 26007KT 230V290 9999 FEW020 FEW028TCU 09/07 Q1011
METAR LPPT 281930Z 26006KT 230V290 9999 FEW020 FEW028TCU 10/07 Q1011
METAR LPPT 281900Z 29005KT 250V320 9999 -SHRA FEW020 FEW028CB BKN045 10/07 Q1011
METAR LPPT 281830Z 29009KT 250V310 9999 FEW015 SCT020 FEW028CB BKN045 11/07 Q1011
METAR LPPT 281800Z 28008KT 240V330 9999 FEW016 FEW028CB BKN045 11/07 Q1011
METAR LPPT 281730Z 26007KT 230V290 9999 VCSH SCT016 FEW028TCU BKN036 11/08 Q1011
METAR LPPT 281700Z 24008KT 220V280 9999 SCT014 BKN040 11/08 Q1011
METAR LPPT 281630Z 25008KT 9999 SCT014 BKN040 11/08 Q1011
METAR LPPT 281600Z 22010KT 9999 FEW010 SCT016 BKN045 11/08 Q1011
METAR LPPT 281530Z 26006KT 230V290 9999 -SHRA FEW014 FEW028TCU BKN045 11/08 Q1011 RERA
METAR LPPT 281500Z 24012KT 7000 SHRA FEW014 FEW025CB BKN035 10/08 Q1012
METAR LPPT 281430Z 25014KT 9999 -SHRA FEW020 FEW025CB SCT040 12/07 Q1012
METAR LPPT 281400Z 22017KT 9999 FEW020 FEW025CB BKN030 14/07 Q1012
METAR LPPT 281330Z 23009KT 180V270 9999 FEW018 FEW025CB SCT030 14/09 Q1012
METAR LPPT 281300Z 27008KT 230V300 9999 VCSH SCT016 FEW025CB BKN038 11/09 Q1013
METAR LPPT 281230Z 28008KT 230V310 9999 -SHRA FEW024 FEW030CB BKN040 12/09 Q1013
METAR LPPT 281200Z 23013KT 8000 -SHRA FEW028 FEW030TCU BKN040 14/07 Q1013
METAR LPPT 281130Z 22011KT 180V250 9999 SCT034 14/06 Q1014
METAR LPPT 281100Z 24008KT 200V300 9999 SCT034 14/06 Q1014
METAR LPPT 281030Z 23008KT 200V270 9999 SCT036 15/05 Q1014
METAR LPPT 281000Z 25009KT 9999 SCT036 15/04 Q1014
METAR LPPT 280930Z 26007KT 230V300 9999 SCT034 14/06 Q1014
METAR LPPT 280900Z 27007KT 230V300 9999 SCT032 13/05 Q1014
METAR LPPT 280830Z 28006KT 240V330 9999 FEW025 13/06 Q1015
METAR LPPT 280800Z 25006KT 220V280 9999 FEW020 12/07 Q1015
METAR LPPT 280730Z 23005KT 9999 FEW020 11/07 Q1015
METAR LPPT 280700Z 25005KT 9999 FEW020 10/08 Q1015
METAR LPPT 280630Z 24004KT 9999 FEW020 FEW025TCU 10/07 Q1015
METAR LPPT 280600Z 24006KT 9999 FEW025 10/07 Q1015
METAR LPPT 280530Z 27003KT 9999 FEW025 10/07 Q1014
METAR LPPT 280500Z 25004KT 9999 FEW025 09/06 Q1014
METAR LPPT 280430Z 27004KT 230V290 9999 FEW025 10/06 Q1014
METAR LPPT 280400Z 28004KT 9999 FEW025 11/06 Q1015
METAR LPPT 280330Z 29003KT 250V320 9999 FEW025 11/07 Q1015
METAR LPPT 280300Z 28004KT 240V320 9999 FEW025 11/07 Q1015
METAR LPPT 280230Z 30005KT 270V330 9999 FEW025 12/07 Q1015
METAR LPPT 280200Z 31007KT 9999 FEW025 12/07 Q1016
METAR LPPT 280130Z 29003KT 220V340 9999 FEW025 12/08 Q1016
METAR LPPT 280100Z 26004KT 9999 SCT028 11/08 Q1016
METAR LPPT 280030Z 22004KT 9999 FEW025 SCT030 11/08 Q1016
METAR LPPT 280000Z 27004KT 9999 SCT028 BKN035 11/08 Q1016
METAR LPPT 272330Z VRB02KT 9999 FEW028 11/07 Q1017
METAR LPPT 272300Z 31003KT 280V340 9999 FEW028 11/08 Q1017
METAR LPPT 272230Z 33003KT 300V010 9999 FEW030 11/08 Q1017
METAR LPPT 272200Z VRB02KT 9999 FEW030 BKN045 12/08 Q1017
METAR LPPT 272130Z 32004KT 9999 FEW020 12/08 Q1017
METAR LPPT 272100Z 31004KT 280V340 9999 FEW034 12/08 Q1017
METAR LPPT 272030Z 31005KT 9999 FEW025 12/08 Q1017
METAR LPPT 272000Z 31007KT 280V340 9999 FEW025 13/08 Q1017
METAR LPPT 271930Z 32008KT 290V350 9999 FEW030 13/08 Q1016
METAR LPPT 271900Z 34012KT 9999 FEW030 14/08 Q1016
METAR LPPT 271830Z 29008KT 260V320 9999 FEW028 SCT032 15/08 Q1016
METAR LPPT 271800Z 30008KT 9999 SCT028 15/08 Q1016
METAR LPPT 271730Z 29007KT 240V340 9999 FEW020 SCT026 15/09 Q1017
METAR LPPT 271700Z 35010KT 9999 FEW020 SCT024 15/10 Q1017
METAR LPPT 271630Z 32009KT 290V360 9999 FEW018 BKN022 15/10 Q1017
METAR LPPT 271600Z 31008KT 290V360 9999 FEW016 BKN020 15/11 Q1017
METAR LPPT 271530Z 33011KT 280V360 9999 FEW010 BKN013 14/11 Q1017
METAR LPPT 271500Z 34012KT 290V360 9999 FEW012 BKN014 14/11 Q1017
METAR LPPT 271430Z 32010KT 280V350 9999 FEW012 BKN018 16/12 Q1017
METAR LPPT 271400Z 31009KT 290V350 9999 FEW015 SCT025 BKN030 16/12 Q1017
METAR LPPT 271330Z 30008KT 270V340 9999 FEW015 BKN025 17/12 Q1017
METAR LPPT 271300Z 27009KT 240V320 9999 FEW016 BKN020 17/12 Q1017
METAR LPPT 271230Z 28009KT 240V320 9999 FEW020 BKN025 17/12 Q1018
METAR LPPT 271200Z 28006KT 240V320 9999 FEW020 BKN025 18/12 Q1018
METAR LPPT 271130Z 30006KT 260V330 9999 FEW020 BKN025 17/11 Q1018
METAR LPPT 271100Z 34005KT 290V090 9999 FEW016 BKN020 17/12 Q1018
METAR LPPT 271030Z 01006KT 340V050 9999 FEW016 BKN020 16/12 Q1019
METAR LPPT 271000Z 30004KT 260V340 9999 SCT016 16/11 Q1019
METAR LPPT 270930Z 30003KT 200V010 9999 BKN015 14/11 Q1019
METAR LPPT 270900Z 35008KT 290V010 9999 BKN015 14/11 Q1019
METAR LPPT 270830Z 34009KT 310V010 9999 BKN014 13/11 Q1019
METAR LPPT 270800Z 34013KT 9999 BKN012 13/10 Q1018
METAR LPPT 270730Z 34010KT 310V020 9999 BKN014 13/10 Q1018
METAR LPPT 270700Z 33004KT 280V020 9999 SCT014 12/10 Q1018
METAR LPPT 270630Z 32004KT 250V020 9999 FEW012 12/10 Q1018
METAR LPPT 270600Z 31004KT 270V360 9999 FEW009 11/09 Q1018
METAR LPPT 270530Z 31004KT 270V030 9999 FEW009 11/10 Q1018
METAR LPPT 270500Z 33006KT 290V010 9999 FEW010 11/10 Q1018
METAR LPPT 270430Z 33008KT 9999 FEW009 11/10 Q1018
METAR LPPT 270400Z 33007KT 9999 FEW009 11/10 Q1018
METAR LPPT 270330Z 32008KT 9999 FEW011 12/10 Q1018
METAR LPPT 270300Z 34006KT 9999 FEW011 11/10 Q1018
METAR LPPT 270230Z 34009KT 9999 FEW011 12/10 Q1018
METAR LPPT 270200Z 34011KT 9999 FEW012 12/10 Q1018
METAR LPPT 270130Z 34012KT 9999 FEW011 12/10 Q1019
METAR LPPT 270100Z 34011KT 9999 SCT011 12/10 Q1019
METAR LPPT 270030Z 34011KT 9999 SCT011 12/10 Q1019
METAR LPPT 270000Z 34012KT 9999 FEW012 12/10 Q1019
METAR LPPT 262330Z 34011KT 9999 FEW012 12/10 Q1019
METAR LPPT 262300Z 34010KT 9999 FEW012 12/10 Q1019
METAR LPPT 262230Z 34010KT 9999 FEW012 12/10 Q1019
METAR LPPT 262200Z 33011KT 9999 FEW014 12/10 Q1019
METAR LPPT 262130Z 33011KT 9999 FEW015 13/10 Q1019
METAR LPPT 262100Z 32011KT 290V360 9999 FEW015 13/10 Q1018
METAR LPPT 262030Z 33010G20KT 290V360 9999 FEW015 13/10 Q1018
METAR LPPT 262000Z 32012KT 9999 FEW017 13/10 Q1017
METAR LPPT 261930Z 32012KT 290V350 9999 FEW017 13/10 Q1017
METAR LPPT 261900Z 33014KT 290V350 9999 FEW018 14/10 Q1017
METAR LPPT 261830Z 32013KT 9999 FEW018 16/11 Q1017
METAR LPPT 261800Z 32011KT 290V350 9999 FEW025 17/10 Q1017
METAR LPPT 261730Z 32013KT 290V350 9999 FEW025 18/11 Q1017
METAR LPPT 261700Z 34012KT 9999 FEW025 18/11 Q1016
METAR LPPT 261630Z 32011KT 290V350 9999 FEW025 19/11 Q1017
METAR LPPT 261600Z 31010KT 280V340 CAVOK 20/11 Q1017
METAR LPPT 261530Z 32011KT CAVOK 20/12 Q1016
METAR LPPT 261500Z 32013KT 280V350 CAVOK 20/12 Q1017
METAR LPPT 261430Z 33012KT 290V350 CAVOK 20/12 Q1017
METAR LPPT 261400Z 32012KT CAVOK 21/12 Q1017
METAR LPPT 261330Z 33011KT CAVOK 21/13 Q1017
METAR LPPT 261300Z 34010KT 300V020 CAVOK 22/13 Q1017
METAR LPPT 261230Z 35009KT 290V020 CAVOK 21/13 Q1017
METAR LPPT 261200Z 36010KT CAVOK 21/13 Q1017
METAR LPPT 261130Z 31009KT CAVOK 20/12 Q1018
METAR LPPT 261100Z 33010KT 290V010 CAVOK 19/12 Q1017
METAR LPPT 261030Z 32009KT 280V350 CAVOK 18/12 Q1018
METAR LPPT 261000Z 33010KT 290V020 CAVOK 17/11 Q1018
METAR LPPT 260930Z 33010KT CAVOK 16/11 Q1017
METAR LPPT 260900Z 33012KT 280V350 CAVOK 15/11 Q1017
METAR LPPT 260830Z 34013KT 9999 FEW025 14/11 Q1017
METAR LPPT 260800Z 32009KT 290V350 9999 FEW025 14/10 Q1017
METAR LPPT 260730Z 32010KT 290V350 9999 FEW020 13/10 Q1017
METAR LPPT 260700Z 33013KT 9999 FEW020 12/10 Q1017
METAR LPPT 260630Z 32014KT 9999 FEW020 12/09 Q1016
METAR LPPT 260600Z 32012KT 9999 FEW020 12/09 Q1016
METAR LPPT 260530Z 33014KT CAVOK 12/10 Q1016
METAR LPPT 260500Z VRB05KT CAVOK 12/10 Q1017
METAR LPPT 260430Z 34016KT CAVOK 12/10 Q1017
METAR LPPT 260400Z 33013KT CAVOK 13/10 Q1016
METAR LPPT 260330Z 30006KT 270V330 CAVOK 13/10 Q1016
METAR LPPT 260300Z VRB05KT CAVOK 13/09 Q1017
METAR LPPT 260230Z 35010KT 320V030 CAVOK 13/10 Q1017
METAR LPPT 260200Z VRB07G17KT CAVOK 13/10 Q1017
METAR LPPT 260130Z 33009KT 280V010 CAVOK 13/10 Q1017
METAR LPPT 260100Z 21006KT 150V290 CAVOK 13/10 Q1017
